STARLINK-2633
1 18435C 21040H   21326.15715226 -.00009889  00000-0 -69206-3 0  3260
2 18435  53.0553   6.6238 0001352  70.8551  87.0477 15.04789806    11
